[
    {
        "OBJECT_NAME": "CHINASAT 31 (BEIDOU-1 G2)",
        "OBJECT_ID": "2000-082A",
        "EPOCH": "2025-04-13T16:35:38.724288",
        "MEAN_MOTION": 0.99254375,
        "ECCENTRICITY": 0.0079736,
        "INCLINATION": 11.9729,
        "RA_OF_ASC_NODE": 30.4342,
        "ARG_OF_PERICENTER": 76.2276,
        "MEAN_ANOMALY": 109.6792,
        "EPHEMERIS_TYPE": 0,
        "CLASSIFICATION_TYPE": "U",
        "NORAD_CAT_ID": 26643,
        "ELEMENT_SET_NO": 999,
        "REV_AT_EPOCH": 4781,
        "BSTAR": 0,
        "MEAN_MOTION_DOT": -2.75e-06,
        "MEAN_MOTION_DDOT": 0
    },
    {
        "OBJECT_NAME": "BEIDOU-1 G3",
        "OBJECT_ID": "2003-021A",
        "EPOCH": "2025-04-13T05:44:41.010720",
        "MEAN_MOTION": 0.99775342,
        "ECCENTRICITY": 0.0016851,
        "INCLINATION": 10.5445,
        "RA_OF_ASC_NODE": 44.827,
        "ARG_OF_PERICENTER": 292.6961,
        "MEAN_ANOMALY": 259.4162,
        "EPHEMERIS_TYPE": 0,
        "CLASSIFICATION_TYPE": "U",
        "NORAD_CAT_ID": 27813,
        "ELEMENT_SET_NO": 999,
        "REV_AT_EPOCH": 8001,
        "BSTAR": 0,
        "MEAN_MOTION_DOT": -2.73e-06,
        "MEAN_MOTION_DDOT": 0
    },
    {
        "OBJECT_NAME": "BEIDOU-1 G4",
        "OBJECT_ID": "2007-003A",
        "EPOCH": "2025-04-13T13:14:38.748768",
        "MEAN_MOTION": 0.99153911,
        "ECCENTRICITY": 0.0055497,
        "INCLINATION": 8.8799,
        "RA_OF_ASC_NODE": 61.3991,
        "ARG_OF_PERICENTER": 262.4985,
        "MEAN_ANOMALY": 308.9823,
        "EPHEMERIS_TYPE": 0,
        "CLASSIFICATION_TYPE": "U",
        "NORAD_CAT_ID": 30323,
        "ELEMENT_SET_NO": 999,
        "REV_AT_EPOCH": 6644,
        "BSTAR": 0,
        "MEAN_MOTION_DOT": 8.5e-07,
        "MEAN_MOTION_DDOT": 0
    },
    {
        "OBJECT_NAME": "BEIDOU-2 M1",
        "OBJECT_ID": "2007-011A",
        "EPOCH": "2025-04-12T14:37:43.142304",
        "MEAN_MOTION": 1.77349366,
        "ECCENTRICITY": 0.0001646,
        "INCLINATION": 51.0991,
        "RA_OF_ASC_NODE": 233.5878,
        "ARG_OF_PERICENTER": 26.3639,
        "MEAN_ANOMALY": 333.5975,
        "EPHEMERIS_TYPE": 0,
        "CLASSIFICATION_TYPE": "U",
        "NORAD_CAT_ID": 31115,
        "ELEMENT_SET_NO": 999,
        "REV_AT_EPOCH": 6851,
        "BSTAR": 0,
        "MEAN_MOTION_DOT": -2.4e-07,
        "MEAN_MOTION_DDOT": 0
    },
    {
        "OBJECT_NAME": "BEIDOU-2 G1",
        "OBJECT_ID": "2010-001A",
        "EPOCH": "2025-04-13T22:04:46.658208",
        "MEAN_MOTION": 1.00268918,
        "ECCENTRICITY": 0.0004581,
        "INCLINATION": 3.2933,
        "RA_OF_ASC_NODE": 60.5074,
        "ARG_OF_PERICENTER": 305.0817,
        "MEAN_ANOMALY": 308.3376,
        "EPHEMERIS_TYPE": 0,
        "CLASSIFICATION_TYPE": "U",
        "NORAD_CAT_ID": 36287,
        "ELEMENT_SET_NO": 999,
        "REV_AT_EPOCH": 5586,
        "BSTAR": 0,
        "MEAN_MOTION_DOT": -2.72e-06,
        "MEAN_MOTION_DDOT": 0
    },
    {
        "OBJECT_NAME": "BEIDOU-2 G3",
        "OBJECT_ID": "2010-024A",
        "EPOCH": "2025-04-13T22:34:27.149664",
        "MEAN_MOTION": 1.00274979,
        "ECCENTRICITY": 0.0009058,
        "INCLINATION": 3.5021,
        "RA_OF_ASC_NODE": 62.3632,
        "ARG_OF_PERICENTER": 332.3125,
        "MEAN_ANOMALY": 225.8323,
        "EPHEMERIS_TYPE": 0,
        "CLASSIFICATION_TYPE": "U",
        "NORAD_CAT_ID": 36590,
        "ELEMENT_SET_NO": 999,
        "REV_AT_EPOCH": 5446,
        "BSTAR": 0,
        "MEAN_MOTION_DOT": -1.26e-06,
        "MEAN_MOTION_DDOT": 0
    },
    {
        "OBJECT_NAME": "BEIDOU-2 IGSO-1",
        "OBJECT_ID": "2010-036A",
        "EPOCH": "2025-04-11T15:00:38.822112",
        "MEAN_MOTION": 1.00296785,
        "ECCENTRICITY": 0.0048645,
        "INCLINATION": 54.2656,
        "RA_OF_ASC_NODE": 166.8617,
        "ARG_OF_PERICENTER": 215.6178,
        "MEAN_ANOMALY": 147.2636,
        "EPHEMERIS_TYPE": 0,
        "CLASSIFICATION_TYPE": "U",
        "NORAD_CAT_ID": 36828,
        "ELEMENT_SET_NO": 999,
        "REV_AT_EPOCH": 5377,
        "BSTAR": 0,
        "MEAN_MOTION_DOT": -8.7e-07,
        "MEAN_MOTION_DDOT": 0
    },
    {
        "OBJECT_NAME": "BEIDOU-2 G4",
        "OBJECT_ID": "2010-057A",
        "EPOCH": "2025-04-13T20:27:34.134624",
        "MEAN_MOTION": 1.0027125,
        "ECCENTRICITY": 0.0005536,
        "INCLINATION": 2.5816,
        "RA_OF_ASC_NODE": 70.4401,
        "ARG_OF_PERICENTER": 207.5522,
        "MEAN_ANOMALY": 31.1228,
        "EPHEMERIS_TYPE": 0,
        "CLASSIFICATION_TYPE": "U",
        "NORAD_CAT_ID": 37210,
        "ELEMENT_SET_NO": 999,
        "REV_AT_EPOCH": 5298,
        "BSTAR": 0,
        "MEAN_MOTION_DOT": -1.04e-06,
        "MEAN_MOTION_DDOT": 0
    },
    {
        "OBJECT_NAME": "BEIDOU-2 IGSO-2",
        "OBJECT_ID": "2010-068A",
        "EPOCH": "2025-04-13T21:55:08.660352",
        "MEAN_MOTION": 1.00256304,
        "ECCENTRICITY": 0.004009,
        "INCLINATION": 48.3257,
        "RA_OF_ASC_NODE": 277.1323,
        "ARG_OF_PERICENTER": 210.8417,
        "MEAN_ANOMALY": 149.5776,
        "EPHEMERIS_TYPE": 0,
        "CLASSIFICATION_TYPE": "U",
        "NORAD_CAT_ID": 37256,
        "ELEMENT_SET_NO": 999,
        "REV_AT_EPOCH": 5249,
        "BSTAR": 0,
        "MEAN_MOTION_DOT": -2e-06,
        "MEAN_MOTION_DDOT": 0
    },
    {
        "OBJECT_NAME": "BEIDOU-2 IGSO-3",
        "OBJECT_ID": "2011-013A",
        "EPOCH": "2025-04-13T18:29:30.457824",
        "MEAN_MOTION": 1.00282963,
        "ECCENTRICITY": 0.0030029,
        "INCLINATION": 61.7999,
        "RA_OF_ASC_NODE": 44.2228,
        "ARG_OF_PERICENTER": 182.0392,
        "MEAN_ANOMALY": 1.6346,
        "EPHEMERIS_TYPE": 0,
        "CLASSIFICATION_TYPE": "U",
        "NORAD_CAT_ID": 37384,
        "ELEMENT_SET_NO": 999,
        "REV_AT_EPOCH": 5135,
        "BSTAR": 0,
        "MEAN_MOTION_DOT": -1.94e-06,
        "MEAN_MOTION_DDOT": 0
    },
    {
        "OBJECT_NAME": "BEIDOU-2 IGSO-4",
        "OBJECT_ID": "2011-038A",
        "EPOCH": "2025-04-13T20:13:38.695008",
        "MEAN_MOTION": 1.00290635,
        "ECCENTRICITY": 0.0141137,
        "INCLINATION": 54.5694,
        "RA_OF_ASC_NODE": 169.5123,
        "ARG_OF_PERICENTER": 230.5703,
        "MEAN_ANOMALY": 198.2027,
        "EPHEMERIS_TYPE": 0,
        "CLASSIFICATION_TYPE": "U",
        "NORAD_CAT_ID": 37763,
        "ELEMENT_SET_NO": 999,
        "REV_AT_EPOCH": 5034,
        "BSTAR": 0,
        "MEAN_MOTION_DOT": -2.3e-07,
        "MEAN_MOTION_DDOT": 0
    }
]