BEIDOU-2 G1             
1 36287U 10001A   25103.91998447 -.00000272  00000+0  00000+0 0  9990
2 36287   3.2933  60.5074 0004581 305.0817 308.3376  1.00268918 55861
BEIDOU-2 G3             
1 36590U 10024A   25103.94059201 -.00000126  00000+0  00000+0 0  9999
2 36590   3.5021  62.3632 0009058 332.3125 225.8323  1.00274979 54462
BEIDOU-2 IGSO-1         
1 36828U 10036A   25101.62544933 -.00000087  00000+0  00000+0 0  9996
2 36828  54.2656 166.8617 0048645 215.6178 147.2636  1.00296785 53778
BEIDOU-2 G4             
1 37210U 10057A   25103.85247841 -.00000104  00000+0  00000+0 0  9990
2 37210   2.5816  70.4401 0005536 207.5522  31.1228  1.00271250 52984
BEIDOU-2 IGSO-2         
1 37256U 10068A   25103.91329468 -.00000200  00000+0  00000+0 0  9992
2 37256  48.3257 277.1323 0040090 210.8417 149.5776  1.00256304 52495
BEIDOU-2 IGSO-3         
1 37384U 11013A   25103.77049141 -.00000194  00000+0  00000+0 0  9998
2 37384  61.7999  44.2228 0030029 182.0392   1.6346  1.00282963 51354
BEIDOU-2 IGSO-4         
1 37763U 11038A   25103.84280897 -.00000023  00000+0  00000+0 0  9990
2 37763  54.5694 169.5123 0141137 230.5703 198.2027  1.00290635 50342
CHINASAT 31 (BEIDOU-1 *)
1 26643U 00082A   25103.69142042 -.00000275  00000+0  00000+0 0  9993
2 26643  11.9729  30.4342 0079736  76.2276 109.6792  0.99254375 47818
BEIDOU-1 G3             
1 27813U 03021A   25103.23936355 -.00000273  00000+0  00000+0 0  9995
2 27813  10.5445  44.8270 0016851 292.6961 259.4162  0.99775342 80017
BEIDOU-1 G4             
1 30323U 07003A   25103.55183737  .00000085  00000+0  00000+0 0  9992
2 30323   8.8799  61.3991 0055497 262.4985 308.9823  0.99153911 66440
BEIDOU-2 M1             
1 31115U 07011A   25102.60952711 -.00000024  00000+0  00000+0 0  9996
2 31115  51.0991 233.5878 0001646  26.3639 333.5975  1.77349366 68511
